SBSS (USA 216)          
1 37168U 10048A   26068.88624904  .00004946  00000+0  24191-3 0  9993
2 37168  97.7474 312.3885 0082264 184.8326 306.5835 15.15724210837421
STARLINK-6344           
1 56520U 23065T   26067.41598164  .00002382  00000+0  19133-3 0  9997
2 56520  43.0028 217.2146 0001736 270.1952  89.8691 15.02537575156433
